SL-8 R/B                
1 15483U 85006B   17345.61198758  .00000006  00000-0  11168-4 0  9992
2 15483  74.0467  29.6430 0019670 323.7682 203.6411 14.36209100721743
